[{"OBJECT_NAME":"SOCRATES","OBJECT_ID":"2014-029C","EPOCH":"2026-03-09T21:12:44.374752","MEAN_MOTION":14.94368282,"ECCENTRICITY":0.00051873,"INCLINATION":97.8954,"RA_OF_ASC_NODE":181.6721,"ARG_OF_PERICENTER":318.1909,"MEAN_ANOMALY":41.8914,"EPHEMERIS_TYPE":0,"CLASSIFICATION_TYPE":"U","NORAD_CAT_ID":39768,"ELEMENT_SET_NO":999,"REV_AT_EPOCH":63957,"BSTAR":0.00024118992,"MEAN_MOTION_DOT":2.537e-5,"MEAN_MOTION_DDOT":0},{"OBJECT_NAME":"UVSQ-SAT NG","OBJECT_ID":"2025-052AT","EPOCH":"2026-03-09T16:14:06.443808","MEAN_MOTION":14.94868635,"ECCENTRICITY":0.00025988,"INCLINATION":97.6968,"RA_OF_ASC_NODE":322.0499,"ARG_OF_PERICENTER":168.7801,"MEAN_ANOMALY":191.3478,"EPHEMERIS_TYPE":0,"CLASSIFICATION_TYPE":"U","NORAD_CAT_ID":63251,"ELEMENT_SET_NO":999,"REV_AT_EPOCH":5376,"BSTAR":0.00026115974,"MEAN_MOTION_DOT":2.79e-5,"MEAN_MOTION_DDOT":0}]
